CCSDS_OMM_VERS,COMMENT,CREATION_DATE,ORIGINATOR,OBJECT_NAME,OBJECT_ID,CENTER_NAME,REF_FRAME,TIME_SYSTEM,MEAN_ELEMENT_THEORY,EPOCH,MEAN_MOTION,ECCENTRICITY,INCLINATION,RA_OF_ASC_NODE,ARG_OF_PERICENTER,MEAN_ANOMALY,EPHEMERIS_TYPE,CLASSIFICATION_TYPE,NORAD_CAT_ID,ELEMENT_SET_NO,REV_AT_EPOCH,BSTAR,MEAN_MOTION_DOT,MEAN_MOTION_DDOT,SEMIMAJOR_AXIS,PERIOD,APOAPSIS,PERIAPSIS,OBJECT_TYPE,RCS_SIZE,COUNTRY_CODE,LAUNCH_DATE,SITE,DECAY_DATE,FILE,GP_ID,TLE_LINE0,TLE_LINE1,TLE_LINE2,NORAD_KEY,JCAT,DeepCat,Satcat,Piece,Active,Type,Name,LDate,Parent,Owner,State,SDate,ExpandedStatus,DDate,ODate,Period,Perigee,PF,Apogee,AF,Inc,IF,OpOrbit,SATCAT_KEY
3.0,GENERATED VIA SPACE-TRACK.ORG API,2026-05-06T14:56:52,18 SPCS,METEOSAT 6,1993-073B,EARTH,TEME,UTC,SGP4,2026-05-06T11:32:41.779104,0.989821,0.0007004,14.474,1.6094,242.6606,252.1241,0,U,22912,999,11660,0.00000000000000,-0.00000084,0.0000000000000,42530.197,1454.808,36181.851,36122.274,PAYLOAD,LARGE,EUME,1993-11-20,FRGUI,,5177490,322305491,0 METEOSAT 6,1 22912U 93073B   26126.48103911 -.00000084  00000-0  00000+0 0  9994,2 22912  14.4740   1.6094 0007004 242.6606 252.1241  0.98982100116603,22912,S22912,-,22912,1993-073B,P,P,Meteosat 6,1993 Nov 20,S22913,EUMET,I-EUM,1993 Nov 20 0141?,In Earth orbit,-,2026 May  4 ,    1454.797 ,   36121, ,   36181, , 14.47 , ,GEO/ID,22912
3.0,GENERATED VIA SPACE-TRACK.ORG API,2026-05-06T14:56:52,18 SPCS,ELEKTRO (GOMS),1994-069A,EARTH,TEME,UTC,SGP4,2026-05-06T11:21:28.660032,1.00288102,0.0008133,14.4926,349.6186,270.7882,211.8616,0,U,23327,999,11545,0.00000000000000,-0.00000133,0.0000000000000,42160.158,1435.863,35816.312,35747.734,PAYLOAD,LARGE,CIS,1994-10-31,TTMTR,,5177503,322305658,0 ELEKTRO (GOMS),1 23327U 94069A   26126.47324838 -.00000133  00000-0  00000+0 0  9998,2 23327  14.4926 349.6186 0008133 270.7882 211.8616  1.00288102115454,23327,S23327,-,23327,1994-069A,P,P,Elektro,1994 Oct 31,S23330,RGMS/VNIIEMI,RU,1994 Oct 31 2110?,In Earth orbit,-,2026 May  5 ,    1435.862 ,   35747, ,   35816, , 14.49 , ,GEO/I,23327
3.0,GENERATED VIA SPACE-TRACK.ORG API,2026-05-06T10:08:52,18 SPCS,USA 107,1994-084A,EARTH,TEME,UTC,SGP4,2026-05-06T00:53:15.576576,0.99083701,0.00072285,14.4981,355.372,298.3273,246.1289,0,U,23435,999,3239,0.00000000000000,-0.00000202,0.0000000000000,42501.119,1453.317,36153.706,36092.262,PAYLOAD,LARGE,US,1994-12-22,AFETR,,5176958,322264574,0 USA 107,1 23435U 94084A   26126.03698584 -.00000202  00000-0  00000-0 0  9997,2 23435  14.4981 355.3720 0007228 298.3273 246.1289  0.99083701 32390,23435,S23435,-,23435,1994-084A,P,P       c,DSP F17,1994 Dec 22,S23438,SFSSC,US,1994 Dec 23 0501,In Earth orbit,-,2026 May  5 ,    1453.311 ,   36091, ,   36153, , 14.50 , ,GEO/ID,23435
3.0,GENERATED VIA SPACE-TRACK.ORG API,2026-05-06T14:56:52,18 SPCS,GALAXY 7,1992-072A,EARTH,TEME,UTC,SGP4,2026-05-06T07:14:59.553024,0.99707151,0.0007412,14.4997,3.6023,37.7954,132.1463,0,U,22205,999,11646,0.00000000000000,0.00000055,0.0000000000000,42323.766,1444.229,35977.001,35914.26,PAYLOAD,LARGE,US,1992-10-28,FRGUI,,5177469,322304234,0 GALAXY 7,1 22205U 92072A   26126.30207816  .00000055  00000-0  00000+0 0  9994,2 22205  14.4997   3.6023 0007412  37.7954 132.1463  0.99707151116467,22205,S22205,-,22205,1992-072A,P,P,Galaxy 7,1992 Oct 28,S22206,SESINTU,US,1992 Oct 28 0035,In Earth orbit,-,2026 May  4 ,    1444.239 ,   35914, ,   35977, , 14.50 , ,GEO/ID,22205
3.0,GENERATED VIA SPACE-TRACK.ORG API,2026-05-06T14:56:52,18 SPCS,INSAT 2A,1992-041A,EARTH,TEME,UTC,SGP4,2026-05-06T09:53:26.851776,1.00233365,0.0009417,14.502,352.1596,291.6724,258.801,0,U,22027,999,12363,0.00000000000000,-0.00000052,0.0000000000000,42175.506,1436.647,35837.088,35757.654,PAYLOAD,LARGE,IND,1992-07-09,FRGUI,,5177464,322304669,0 INSAT 2A,1 22027U 92041A   26126.41211634 -.00000052  00000-0  00000+0 0  9995,2 22027  14.5020 352.1596 0009417 291.6724 258.8010  1.00233365123632,22027,S22027,-,22027,1992-041A,P,P,Insat 2A,1992 Jul  9,S22033,ISRO,IN,1992 Jul  9 2301,In Earth orbit,-,2026 May  4 ,    1436.651 ,   35757, ,   35837, , 14.50 , ,GEO/ID,22027
3.0,GENERATED VIA SPACE-TRACK.ORG API,2026-05-06T14:56:52,18 SPCS,EXPRESS 1,1994-067A,EARTH,TEME,UTC,SGP4,2026-05-06T08:03:37.808064,0.99831067,0.000558,14.5081,2.3328,267.1284,86.8175,0,U,23319,999,11515,0.00000000000000,-0.00000022,0.0000000000000,42288.736,1442.437,35934.198,35887.003,PAYLOAD,LARGE,CIS,1994-10-13,TTMTR,,5177503,322305656,0 EXPRESS 1,1 23319U 94067A   26126.33585426 -.00000022  00000-0  00000+0 0  9991,2 23319  14.5081   2.3328 0005580 267.1284  86.8175  0.99831067115156,23319,S23319,-,23319,1994-067A,P,P,Ekspress-2,1994 Oct 13,S23322,KS,RU,1994 Oct 13 2300?,In Earth orbit,-,2026 May  4 ,    1442.444 ,   35886, ,   35934, , 14.51 , ,GEO/ID,23319
3.0,GENERATED VIA SPACE-TRACK.ORG API,2026-05-06T14:56:52,18 SPCS,TELECOM 2B,1992-021A,EARTH,TEME,UTC,SGP4,2026-05-06T13:39:53.070336,0.99514427,0.0015196,14.5338,4.04,77.5528,132.6658,0,U,21939,999,11697,0.00000000000000,-0.00000325,0.0000000000000,42378.392,1447.026,36064.655,35935.859,PAYLOAD,LARGE,FR,1992-04-15,FRGUI,,5177462,322304143,0 TELECOM 2B,1 21939U 92021A   26126.56936424 -.00000325  00000-0  00000+0 0  9994,2 21939  14.5338   4.0400 0015196  77.5528 132.6658  0.99514427116970,21939,S21939,-,21939,1992-021A,P,P,Telecom 2B,1992 Apr 15,S21941,ORANGE,F,1992 Apr 15 2345,In Earth orbit,-,2026 May  4 ,    1447.021 ,   35936, ,   36064, , 14.53 , ,GEO/ID,21939
3.0,GENERATED VIA SPACE-TRACK.ORG API,2026-05-06T10:08:52,18 SPCS,GALS 1,1994-002A,EARTH,TEME,UTC,SGP4,2026-05-06T04:48:02.229984,1.00329468,0.00102134,14.535,354.1731,237.1374,109.9931,0,U,22963,999,11828,0.00000000000000,0.00000105,0.0000000000000,42148.569,1435.271,35813.482,35727.386,PAYLOAD,LARGE,CIS,1994-01-20,TTMTR,,5176958,322264983,0 GALS 1,1 22963U 94002A   26126.20002581  .00000105  00000-0  00000-0 0  9998,2 22963  14.5350 354.1731 0010213 237.1374 109.9931  1.00329468118285,22963,S22963,-,22963,1994-002A,P,P,Gals 1,1994 Jan 20,S22966,ISPUT,RU,1994 Jan 20 1630?,In Earth orbit,-,2026 May  3 ,    1435.286 ,   35727, ,   35813, , 14.54 , ,GEO/ID,22963
3.0,GENERATED VIA SPACE-TRACK.ORG API,2026-05-06T10:08:52,18 SPCS,BRAZILSAT 2,1986-026B,EARTH,TEME,UTC,SGP4,2026-05-06T03:24:38.763648,0.99636169,0.00040359,14.5435,350.7366,345.2981,196.1636,0,U,16650,999,4596,0.00000000000000,-0.00000036,0.0000000000000,42343.865,1445.258,35982.82,35948.64,PAYLOAD,LARGE,BRAZ,1986-03-28,FRGUI,,5176958,322262537,0 BRAZILSAT 2,1 16650U 86026B   26126.14211532 -.00000036  00000-0  00000-0 0  9996,2 16650  14.5435 350.7366 0004036 345.2981 196.1636  0.99636169 45962,16650,S16650,-,16650,1986-026B,P,P,Brasilsat 2,1986 Mar 28,S16657,EMBRT,BR,1986 Mar 28 2350,In Earth orbit,-,2026 May  5 ,    1445.258 ,   35948, ,   35982, , 14.54 , ,GEO/ID,16650
3.0,GENERATED VIA SPACE-TRACK.ORG API,2026-05-06T14:56:52,18 SPCS,THOR 1 (MARCOPOLO 2),1990-074A,EARTH,TEME,UTC,SGP4,2026-05-06T12:26:19.703904,0.99211955,0.0003537,14.5499,6.9604,285.6834,280.2308,0,U,20762,999,4579,0.00000000000000,-0.00000263,0.0000000000000,42464.483,1451.438,36101.367,36071.328,PAYLOAD,LARGE,NOR,1990-08-18,AFETR,,5177422,322303144,0 THOR 1 (MARCOPOLO 2),1 20762U 90074A   26126.51828361 -.00000263  00000-0  00000+0 0  9999,2 20762  14.5499   6.9604 0003537 285.6834 280.2308  0.99211955 45799,20762,S20762,-,20762,1990-074A,P,P,Thor 1,1990 Aug 18,S20764,TNOR,N,1990 Aug 18 0109?,In Earth orbit,-,2026 May  4 ,    1451.441 ,   36071, ,   36101, , 14.55 , ,GEO/ID,20762
3.0,GENERATED VIA SPACE-TRACK.ORG API,2026-05-06T14:56:52,18 SPCS,PAS 1,1988-051C,EARTH,TEME,UTC,SGP4,2026-05-06T06:27:04.149792,0.99393404,0.0003262,14.5522,4.9737,356.9154,351.5623,0,U,19217,999,14775,0.00000000000000,0.00000036,0.0000000000000,42412.786,1448.788,36048.486,36020.816,PAYLOAD,LARGE,US,1988-06-15,FRGUI,,5177392,322302771,0 PAS 1,1 19217U 88051C   26126.26879803  .00000036  00000-0  00000+0 0  9990,2 19217  14.5522   4.9737 0003262 356.9154 351.5623  0.99393404147757,19217,S19217,-,19217,1988-051C,P,P,PAS 1,1988 Jun 15,S19218,SESINTU,US,1988 Jun 15 1142,In Earth orbit,-,2026 May  5 ,    1448.794 ,   36020, ,   36048, , 14.55 , ,GEO/ID,19217
3.0,GENERATED VIA SPACE-TRACK.ORG API,2026-05-06T14:56:52,18 SPCS,SUPERBIRD B1,1992-010A,EARTH,TEME,UTC,SGP4,2026-05-06T11:28:03.081216,0.9905367,0.0011775,14.5529,6.6319,123.6897,356.7987,0,U,21893,999,12390,0.00000000000000,-0.00000040,0.0000000000000,42509.709,1453.757,36181.629,36081.518,PAYLOAD,LARGE,JPN,1992-02-26,FRGUI,,5177460,322304618,0 SUPERBIRD B1,1 21893U 92010A   26126.47781344 -.00000040  00000-0  00000+0 0  9994,2 21893  14.5529   6.6319 0011775 123.6897 356.7987  0.99053670123902,21893,S21893,-,21893,1992-010A,P,P,Superbird B1,1992 Feb 26,A05119,SKPJ,J,1992 Feb 27 0018,In Earth orbit,-,2026 May  5 ,    1453.750 ,   36081, ,   36181, , 14.55 , ,GEO/ID,21893
3.0,GENERATED VIA SPACE-TRACK.ORG API,2026-05-06T10:08:52,18 SPCS,KUPON,1997-070A,EARTH,TEME,UTC,SGP4,2026-05-06T02:34:19.866432,1.0026881,0.00043697,14.5549,354.9515,315.0279,44.9014,0,U,25045,999,10422,0.00000000000000,-0.00000261,0.0000000000000,42165.566,1436.14,35805.856,35769.006,PAYLOAD,MEDIUM,CIS,1997-11-12,TTMTR,,5176958,322265265,0 KUPON,1 25045U 97070A   26126.10717438 -.00000261  00000-0  00000-0 0  9997,2 25045  14.5549 354.9515 0004370 315.0279  44.9014  1.00268810104226,25045,S25045,-,25045,1997-070A,P,P,Kupon,1997 Nov 12,S25048,TSBM,RU,1997 Nov 12 2340?,In Earth orbit,-,2026 May  5 ,    1436.135 ,   35768, ,   35806, , 14.55 , ,GEO/I,25045
